[{"OBJECT_NAME":"VSP RF C1","OBJECT_ID":"2024-043AQ","EPOCH":"2026-03-09T21:56:05.358624","MEAN_MOTION":15.29409663,"ECCENTRICITY":0.00093965,"INCLINATION":97.5441,"RA_OF_ASC_NODE":205.1792,"ARG_OF_PERICENTER":219.6172,"MEAN_ANOMALY":140.4382,"EPHEMERIS_TYPE":0,"CLASSIFICATION_TYPE":"U","NORAD_CAT_ID":59136,"ELEMENT_SET_NO":999,"REV_AT_EPOCH":11190,"BSTAR":0.00026222052,"MEAN_MOTION_DOT":7.409e-5,"MEAN_MOTION_DDOT":0},{"OBJECT_NAME":"STARLINK-35804","OBJECT_ID":"2025-254Z","EPOCH":"2026-03-09T17:26:54.322368","MEAN_MOTION":15.30201326,"ECCENTRICITY":7.677e-5,"INCLINATION":53.1583,"RA_OF_ASC_NODE":229.9483,"ARG_OF_PERICENTER":89.8695,"MEAN_ANOMALY":270.2393,"EPHEMERIS_TYPE":0,"CLASSIFICATION_TYPE":"U","NORAD_CAT_ID":66371,"ELEMENT_SET_NO":999,"REV_AT_EPOCH":1901,"BSTAR":0.0010158194,"MEAN_MOTION_DOT":0.00029849,"MEAN_MOTION_DDOT":0}]
